CCSDS_OMM_VERS = 2.0
CREATION_DATE  = 
ORIGINATOR     = 

OBJECT_NAME    = SL-16 R/B
OBJECT_ID      = 1993-016B
CENTER_NAME    = EARTH
REF_FRAME      = TEME
TIME_SYSTEM    = UTC
MEAN_ELEMENT_THEORY = SGP/SGP4

EPOCH          = 2026-03-05T18:01:55.610112
MEAN_MOTION    = 14.15306753
ECCENTRICITY   = .0011516
INCLINATION    = 71.0063
RA_OF_ASC_NODE = 223.4526
ARG_OF_PERICENTER = 319.7189
MEAN_ANOMALY   = 40.3079

EPHEMERIS_TYPE = 0
CLASSIFICATION_TYPE = U
NORAD_CAT_ID   = 22566
ELEMENT_SET_NO = 999
REV_AT_EPOCH   = 70161
BSTAR          = .16808E-3
MEAN_MOTION_DOT = .28E-5
MEAN_MOTION_DDOT = 0

CCSDS_OMM_VERS = 2.0
CREATION_DATE  = 
ORIGINATOR     = 

OBJECT_NAME    = COSMOS 2242
OBJECT_ID      = 1993-024A
CENTER_NAME    = EARTH
REF_FRAME      = TEME
TIME_SYSTEM    = UTC
MEAN_ELEMENT_THEORY = SGP/SGP4

EPOCH          = 2026-03-05T14:58:48.084960
MEAN_MOTION    = 14.96528853
ECCENTRICITY   = .0015446
INCLINATION    = 82.5151
RA_OF_ASC_NODE = 270.6064
ARG_OF_PERICENTER = 323.5049
MEAN_ANOMALY   = 36.5119

EPHEMERIS_TYPE = 0
CLASSIFICATION_TYPE = U
NORAD_CAT_ID   = 22626
ELEMENT_SET_NO = 999
REV_AT_EPOCH   = 77978
BSTAR          = .21662E-3
MEAN_MOTION_DOT = .2493E-4
MEAN_MOTION_DDOT = 0

CCSDS_OMM_VERS = 2.0
CREATION_DATE  = 
ORIGINATOR     = 

OBJECT_NAME    = SL-16 R/B
OBJECT_ID      = 1993-059B
CENTER_NAME    = EARTH
REF_FRAME      = TEME
TIME_SYSTEM    = UTC
MEAN_ELEMENT_THEORY = SGP/SGP4

EPOCH          = 2026-03-05T05:48:31.379904
MEAN_MOTION    = 14.17232284
ECCENTRICITY   = .0018748
INCLINATION    = 70.9922
RA_OF_ASC_NODE = 20.5044
ARG_OF_PERICENTER = 222.9016
MEAN_ANOMALY   = 137.0647

EPHEMERIS_TYPE = 0
CLASSIFICATION_TYPE = U
NORAD_CAT_ID   = 22803
ELEMENT_SET_NO = 999
REV_AT_EPOCH   = 67890
BSTAR          = -.54664E-5
MEAN_MOTION_DOT = -.59E-6
MEAN_MOTION_DDOT = 0

CCSDS_OMM_VERS = 2.0
CREATION_DATE  = 
ORIGINATOR     = 

OBJECT_NAME    = ARIANE 40 R/B
OBJECT_ID      = 1993-061H
CENTER_NAME    = EARTH
REF_FRAME      = TEME
TIME_SYSTEM    = UTC
MEAN_ELEMENT_THEORY = SGP/SGP4

EPOCH          = 2026-03-05T17:14:15.351072
MEAN_MOTION    = 14.32858647
ECCENTRICITY   = .000962
INCLINATION    = 98.4923
RA_OF_ASC_NODE = 133.6840
ARG_OF_PERICENTER = 298.2066
MEAN_ANOMALY   = 61.8146

EPHEMERIS_TYPE = 0
CLASSIFICATION_TYPE = U
NORAD_CAT_ID   = 22830
ELEMENT_SET_NO = 999
REV_AT_EPOCH   = 69353
BSTAR          = .12174E-3
MEAN_MOTION_DOT = .289E-5
MEAN_MOTION_DDOT = 0

CCSDS_OMM_VERS = 2.0
CREATION_DATE  = 
ORIGINATOR     = 

OBJECT_NAME    = COSMOS 2278
OBJECT_ID      = 1994-023A
CENTER_NAME    = EARTH
REF_FRAME      = TEME
TIME_SYSTEM    = UTC
MEAN_ELEMENT_THEORY = SGP/SGP4

EPOCH          = 2026-03-05T16:59:23.704800
MEAN_MOTION    = 14.14377027
ECCENTRICITY   = .0007763
INCLINATION    = 71.0546
RA_OF_ASC_NODE = 183.4267
ARG_OF_PERICENTER = 21.1565
MEAN_ANOMALY   = 338.9877

EPHEMERIS_TYPE = 0
CLASSIFICATION_TYPE = U
NORAD_CAT_ID   = 23087
ELEMENT_SET_NO = 999
REV_AT_EPOCH   = 64424
BSTAR          = .16398E-3
MEAN_MOTION_DOT = .267E-5
MEAN_MOTION_DDOT = 0

CCSDS_OMM_VERS = 2.0
CREATION_DATE  = 
ORIGINATOR     = 

OBJECT_NAME    = SL-16 R/B
OBJECT_ID      = 1994-023B
CENTER_NAME    = EARTH
REF_FRAME      = TEME
TIME_SYSTEM    = UTC
MEAN_ELEMENT_THEORY = SGP/SGP4

EPOCH          = 2026-03-05T11:21:41.506848
MEAN_MOTION    = 14.15013187
ECCENTRICITY   = .0005672
INCLINATION    = 70.9986
RA_OF_ASC_NODE = 79.7425
ARG_OF_PERICENTER = 289.7929
MEAN_ANOMALY   = 70.2581

EPHEMERIS_TYPE = 0
CLASSIFICATION_TYPE = U
NORAD_CAT_ID   = 23088
ELEMENT_SET_NO = 999
REV_AT_EPOCH   = 64549
BSTAR          = -.54485E-4
MEAN_MOTION_DOT = -.153E-5
MEAN_MOTION_DDOT = 0

CCSDS_OMM_VERS = 2.0
CREATION_DATE  = 
ORIGINATOR     = 

OBJECT_NAME    = SL-16 R/B
OBJECT_ID      = 1994-074B
CENTER_NAME    = EARTH
REF_FRAME      = TEME
TIME_SYSTEM    = UTC
MEAN_ELEMENT_THEORY = SGP/SGP4

EPOCH          = 2026-03-05T16:16:00.715584
MEAN_MOTION    = 14.79402865
ECCENTRICITY   = .0005501
INCLINATION    = 97.7114
RA_OF_ASC_NODE = 95.6579
ARG_OF_PERICENTER = 225.8356
MEAN_ANOMALY   = 249.4636

EPHEMERIS_TYPE = 0
CLASSIFICATION_TYPE = U
NORAD_CAT_ID   = 23343
ELEMENT_SET_NO = 999
REV_AT_EPOCH   = 68665
BSTAR          = .99908E-4
MEAN_MOTION_DOT = .696E-5
MEAN_MOTION_DDOT = 0

CCSDS_OMM_VERS = 2.0
CREATION_DATE  = 
ORIGINATOR     = 

OBJECT_NAME    = SL-16 R/B
OBJECT_ID      = 1994-077B
CENTER_NAME    = EARTH
REF_FRAME      = TEME
TIME_SYSTEM    = UTC
MEAN_ELEMENT_THEORY = SGP/SGP4

EPOCH          = 2026-03-05T05:52:19.145856
MEAN_MOTION    = 14.15561763
ECCENTRICITY   = .0003348
INCLINATION    = 70.9851
RA_OF_ASC_NODE = 1.8393
ARG_OF_PERICENTER = 218.5508
MEAN_ANOMALY   = 141.5376

EPHEMERIS_TYPE = 0
CLASSIFICATION_TYPE = U
NORAD_CAT_ID   = 23405
ELEMENT_SET_NO = 999
REV_AT_EPOCH   = 61560
BSTAR          = -.86331E-4
MEAN_MOTION_DOT = -.217E-5
MEAN_MOTION_DDOT = 0

CCSDS_OMM_VERS = 2.0
CREATION_DATE  = 
ORIGINATOR     = 

OBJECT_NAME    = ARIANE 40+ R/B
OBJECT_ID      = 1995-021B
CENTER_NAME    = EARTH
REF_FRAME      = TEME
TIME_SYSTEM    = UTC
MEAN_ELEMENT_THEORY = SGP/SGP4

EPOCH          = 2026-03-05T17:25:45.399360
MEAN_MOTION    = 14.39769270
ECCENTRICITY   = .0007473
INCLINATION    = 98.4505
RA_OF_ASC_NODE = 136.2624
ARG_OF_PERICENTER = 147.1612
MEAN_ANOMALY   = 323.9586

EPHEMERIS_TYPE = 0
CLASSIFICATION_TYPE = U
NORAD_CAT_ID   = 23561
ELEMENT_SET_NO = 999
REV_AT_EPOCH   = 61867
BSTAR          = .14889E-3
MEAN_MOTION_DOT = .423E-5
MEAN_MOTION_DDOT = 0

CCSDS_OMM_VERS = 2.0
CREATION_DATE  = 
ORIGINATOR     = 

OBJECT_NAME    = SL-16 R/B
OBJECT_ID      = 1995-058B
CENTER_NAME    = EARTH
REF_FRAME      = TEME
TIME_SYSTEM    = UTC
MEAN_ELEMENT_THEORY = SGP/SGP4

EPOCH          = 2026-03-05T17:54:25.058304
MEAN_MOTION    = 14.15493138
ECCENTRICITY   = .0010969
INCLINATION    = 71.0213
RA_OF_ASC_NODE = 188.5336
ARG_OF_PERICENTER = 132.7336
MEAN_ANOMALY   = 227.4712

EPHEMERIS_TYPE = 0
CLASSIFICATION_TYPE = U
NORAD_CAT_ID   = 23705
ELEMENT_SET_NO = 999
REV_AT_EPOCH   = 56729
BSTAR          = .85534E-4
MEAN_MOTION_DOT = .12E-5
MEAN_MOTION_DDOT = 0

CCSDS_OMM_VERS = 2.0
CREATION_DATE  = 
ORIGINATOR     = 

OBJECT_NAME    = SL-16 R/B
OBJECT_ID      = 1996-051B
CENTER_NAME    = EARTH
REF_FRAME      = TEME
TIME_SYSTEM    = UTC
MEAN_ELEMENT_THEORY = SGP/SGP4

EPOCH          = 2026-03-05T16:54:08.273952
MEAN_MOTION    = 14.12414504
ECCENTRICITY   = .0015422
INCLINATION    = 70.7599
RA_OF_ASC_NODE = 183.6736
ARG_OF_PERICENTER = 154.0650
MEAN_ANOMALY   = 206.1246

EPHEMERIS_TYPE = 0
CLASSIFICATION_TYPE = U
NORAD_CAT_ID   = 24298
ELEMENT_SET_NO = 999
REV_AT_EPOCH   = 52108
BSTAR          = .9299E-4
MEAN_MOTION_DOT = .123E-5
MEAN_MOTION_DDOT = 0

CCSDS_OMM_VERS = 2.0
CREATION_DATE  = 
ORIGINATOR     = 

OBJECT_NAME    = ORBVIEW 2 (SEASTAR)
OBJECT_ID      = 1997-037A
CENTER_NAME    = EARTH
REF_FRAME      = TEME
TIME_SYSTEM    = UTC
MEAN_ELEMENT_THEORY = SGP/SGP4

EPOCH          = 2026-03-05T10:40:36.737760
MEAN_MOTION    = 14.35491436
ECCENTRICITY   = .0003156
INCLINATION    = 98.8558
RA_OF_ASC_NODE = 228.6443
ARG_OF_PERICENTER = 80.3835
MEAN_ANOMALY   = 279.7706

EPHEMERIS_TYPE = 0
CLASSIFICATION_TYPE = U
NORAD_CAT_ID   = 24883
ELEMENT_SET_NO = 999
REV_AT_EPOCH   = 50786
BSTAR          = .17872E-3
MEAN_MOTION_DOT = .467E-5
MEAN_MOTION_DDOT = 0

